ONEWEB-0589             
1 54655U 22166P   24204.00080145  .00000057  00000+0  10743-3 0  9991
2 54655  87.9283  22.3769 0002740  98.0474 262.0971 13.21823907 80177
ONEWEB-0590             
1 54656U 22166Q   24204.47863663 -.00000047  00000+0 -14499-3 0  9990
2 54656  87.9287  22.2900 0001723  93.3005 266.8326 13.21825146 80214
ONEWEB-0591             
1 54657U 22166R   24203.88566620 -.00000016  00000+0 -69369-4 0  9991
2 54657  87.9281  22.4026 0001945  92.2413 267.8944 13.21824847 79703
ONEWEB-0592             
1 54658U 22166S   24204.41870485 -.00000052  00000+0 -15757-3 0  9990
2 54658  87.9278  22.2606 0002026  94.6822 265.4543 13.21826608 80127
ONEWEB-0593             
1 54659U 22166T   24204.06387584  .00000029  00000+0  38440-4 0  9992
2 54659  87.9281  22.3578 0002039  93.6483 266.4884 13.21826268 80184
ONEWEB-0594             
1 54660U 22166U   24204.00710540  .00000041  00000+0  67460-4 0  9998
2 54660  87.9286  22.3703 0001825  85.4117 274.7225 13.21825429 80185
ONEWEB-0595             
1 54661U 22166V   24204.06071279  .00000033  00000+0  48472-4 0  9997
2 54661  87.9283  22.3462 0001580  90.6675 269.4640 13.21823880 80170
ONEWEB-0596             
1 54662U 22166W   24204.41239944  .00000014  00000+0  28757-5 0  9996
2 54662  87.9285  22.2825 0002019  98.0104 262.1259 13.21826161 80229
ONEWEB-0597             
1 54663U 22166X   24204.01498941  .00000004  00000+0 -22326-4 0  9992
2 54663  87.9286  22.3633 0002159  90.8421 269.2960 13.21826043 80176
ONEWEB-0600             
1 54664U 22166Y   24203.99764245  .00000072  00000+0  14291-3 0  9997
2 54664  87.9281  22.4051 0002005  89.1579 270.9785 13.21826260 80144
ONEWEB-0601             
1 54665U 22166Z   24204.06545431  .00000051  00000+0  92879-4 0  9997
2 54665  87.9287  22.3583 0002257  98.3014 261.8376 13.21825190 80332
ONEWEB-0602             
1 54666U 22166AA  24203.87936212  .00000001  00000+0 -30182-4 0  9992
2 54666  87.9286  22.3991 0002172  92.6614 267.4768 13.21824804 79699
ONEWEB-0603             
1 54667U 22166AB  24204.48966462  .00000023  00000+0  24212-4 0  9991
2 54667  87.9287  22.2797 0002229  92.9318 267.2071 13.21824921 80160
ONEWEB-0604             
1 54668U 22166AC  24204.47705308 -.00000018  00000+0 -75762-4 0  9993
2 54668  87.9281  22.2594 0001931  81.2319 278.9034 13.21826517 80139
ONEWEB-0605             
1 54669U 22166AD  24204.01656425 -.00000006  00000+0 -47069-4 0  9995
2 54669  87.9280  22.3835 0002342 101.5324 258.6073 13.21824740 80142
ONEWEB-0606             
1 54670U 22166AE  24203.88724665 -.00000042  00000+0 -13414-3 0  9999
2 54670  87.9285  22.4013 0001657  88.5838 271.5486 13.21824526 79715
ONEWEB-0607             
1 54671U 22166AF  24204.45970012  .00000061  00000+0  11580-3 0  9994
2 54671  87.9284  22.2641 0002102  90.6033 269.5342 13.21823648 80227
ONEWEB-0608             
1 54672U 22166AG  24203.93613559  .00000015  00000+0  42361-5 0  9999
2 54672  87.9289  22.3918 0002326  98.5930 261.5468 13.21824909 79705
ONEWEB-0610             
1 54673U 22166AH  24203.91721783  .00000068  00000+0  13397-3 0  9990
2 54673  87.9284  22.3888 0002219  97.8767 262.2619 13.21825319 79609
ONEWEB-0611             
1 54674U 22166AJ  24204.06229716  .00000026  00000+0  30341-4 0  9990
2 54674  87.9282  22.3585 0001577  79.8170 280.3142 13.21825042 80085
ONEWEB-0612             
1 54675U 22166AK  24203.99921901  .00000063  00000+0  12121-3 0  9993
2 54675  87.9282  22.3534 0002060  95.0270 265.1099 13.21825293 80067
ONEWEB-0615             
1 54676U 22166AL  24204.05599367  .00000043  00000+0  71658-4 0  9998
2 54676  87.9281  22.3668 0002083  86.4707 273.6665 13.21826704 80082
ONEWEB-0655             
1 54677U 22166AM  24203.87778278 -.00000060  00000+0 -17594-3 0  9997
2 54677  87.9282  22.4047 0002277  81.7632 278.3760 13.21827253 79587
ONEWEB-0659             
1 54678U 22166AN  24203.89513552  .00000025  00000+0  28669-4 0  9997
2 54678  87.9280  22.4074 0001629  89.8327 270.2994 13.21826928 79674
ONEWEB-0685             
1 54679U 22166AP  24204.42658609  .00000027  00000+0  33005-4 0  9993
2 54679  87.9283  22.2914 0002097  88.9776 271.1598 13.21826434 80109
ONEWEB-0712             
1 54680U 22166AQ  24204.39803183  .00000014  00000+0  39764-5 0  9995
2 54680  87.9113   7.1045 0001541  80.1063 280.0242 13.17105389 81094
ONEWEB-0714             
1 54681U 22166AR  24204.05440724  .00000085  00000+0  17464-3 0  9996
2 54681  87.9284  22.3520 0002129  88.1870 271.9508 13.21823961 80178
ONEWEB-0532             
1 55140U 23004A   24204.36890065  .00000069  00000+0  14334-3 0  9995
2 55140  87.9190 144.2109 0002079  95.1690 264.9678 13.17648040 76087
ONEWEB-0533             
1 55141U 23004B   24203.86952913  .00000475  00000+0  12853-2 0  9995
2 55141  87.8961 129.1098 0002123  76.9843 283.1522 13.12442807 76853
ONEWEB-0541             
1 55142U 23004C   24203.96612349  .00000057  00000+0  12557-3 0  9991
2 55142  87.8984 159.4333 0002073  83.1577 276.9787 13.11414164 74838
ONEWEB-0543             
1 55143U 23004D   24204.28725585  .00000073  00000+0  15131-3 0  9994
2 55143  87.9139 113.8888 0002053  67.2082 292.9267 13.18685603 78114
ONEWEB-0544             
1 55144U 23004E   24204.20504687  .00000063  00000+0  12778-3 0  9998
2 55144  87.9143 113.8905 0001819  78.1480 281.9856 13.18684466 78109
ONEWEB-0560             
1 55145U 23004F   24204.27460703  .00000102  00000+0  22638-3 0  9996
2 55145  87.9148 113.8296 0001710  64.8305 295.3004 13.18687473 78123
ONEWEB-0565             
1 55146U 23004G   24204.19239910  .00000073  00000+0  15209-3 0  9995
2 55146  87.9142 113.9224 0001261  85.0509 275.0768 13.18684850 78108
ONEWEB-0567             
1 55147U 23004H   24204.26195979  .00000094  00000+0  20553-3 0  9991
2 55147  87.9143 113.8623 0001427  71.4678 288.6609 13.18685303 78111
ONEWEB-0569             
1 55148U 23004J   24204.26750393 -.00000192  00000+0 -56167-3 0  9990
2 55148  87.8918  98.5168 0001044  44.1788 315.9424 13.13470013 78954
ONEWEB-0570             
1 55149U 23004K   24203.79405154  .00000041  00000+0  72251-4 0  9994
2 55149  87.9146 113.9529 0001875 101.0319 259.1025 13.18684623 78042
ONEWEB-0571             
1 55150U 23004L   24204.16710975  .00000121  00000+0  27432-3 0  9997
2 55150  87.9148 113.8848 0000878  88.7824 271.3409 13.18687595 78103
ONEWEB-0572             
1 55151U 23004M   24203.86805649  .00000045  00000+0  83538-4 0  9992
2 55151  87.9188 144.3173 0001931  84.7736 275.3616 13.17650823 75910
ONEWEB-0573             
1 55152U 23004N   24204.31253850  .00000111  00000+0  24947-3 0  9997
2 55152  87.9142 113.8751 0001156 102.1481 257.9781 13.18685055 78115
ONEWEB-0588             
1 55153U 23004P   24204.23034172  .00000118  00000+0  26588-3 0  9993
2 55153  87.9147 113.8599 0001749  94.5461 265.5871 13.18684910 78104
ONEWEB-0598             
1 55154U 23004Q   24203.94407815  .00000545  00000+0  15012-2 0  9992
2 55154  87.8983 159.4774 0001315  77.8528 282.2748 13.11420097 74775
ONEWEB-0599             
1 55155U 23004R   24204.20895849  .00000052  00000+0  99775-4 0  9994
2 55155  87.9196 144.2358 0001933  75.1949 284.9396 13.17649584 75967
ONEWEB-0614             
1 55156U 23004S   24204.39678788  .00000444  00000+0  12171-2 0  9994
2 55156  87.8988 159.3919 0002409  89.0984 271.0420 13.11418421 74791
ONEWEB-0616             
1 55157U 23004T   24204.40282671  .00000035  00000+0  57495-4 0  9995
2 55157  87.9190 144.2037 0002504  50.8074 309.3279 13.17647765 76200
ONEWEB-0617             
1 55158U 23004U   24203.92713110  .00000107  00000+0  26494-3 0  9993
2 55158  87.8985 159.4787 0002134  94.1990 265.9381 13.11419125 74737
ONEWEB-0618             
1 55159U 23004V   24204.17423553  .00000386  00000+0  15144-3 0  9990
2 55159  86.9042  80.9259 0013660 162.1022 198.0654 14.26851639 80331
ONEWEB-0619             
1 55160U 23004W   24204.20733870  .00000043  00000+0  76820-4 0  9991
2 55160  87.9191 144.2195 0002531  71.8211 288.3196 13.17647865 76076
ONEWEB-0620             
1 55161U 23004X   24203.92202775 -.00000346  00000+0 -10117-2 0  9998
2 55161  87.8986 159.4909 0001893  95.5197 264.6147 13.11419615 74700
ONEWEB-0621             
1 55162U 23004Y   24204.40695932  .00000523  00000+0  14412-2 0  9991
2 55162  87.8982 159.3629 0002376  82.8052 277.3346 13.11416239 74779
ONEWEB-0622             
1 55163U 23004Z   24204.48832247  .00002453  00000+0  68834-2 0  9993
2 55163  87.8982 159.3637 0002353 103.5069 256.6321 13.11431113 74752
ONEWEB-0623             
1 55164U 23004AA  24204.20248649  .00000021  00000+0  21661-4 0  9999
2 55164  87.9190 144.2742 0002559  97.4881 262.6542 13.17647062 76062
ONEWEB-0624             
1 55165U 23004AB  24204.29301787 -.00000189  00000+0 -55991-3 0  9991
2 55165  87.8959 129.0338 0002152  82.3259 277.8114 13.12445208 76907
ONEWEB-0625             
1 55166U 23004AC  24203.88745112  .00000049  00000+0  92102-4 0  9999
2 55166  87.9191 144.3349 0002257  73.8070 286.3310 13.17650655 76015
ONEWEB-0626             
1 55167U 23004AD  24204.33336976  .00000061  00000+0  12276-3 0  9992
2 55167  87.9191 144.2470 0001586  86.8084 273.3229 13.17649876 76077
ONEWEB-0627             
1 55168U 23004AE  24204.39799998  .00000014  00000+0  35994-5 0  9998
2 55168  87.9190 144.2356 0002297  97.3464 262.7929 13.17649605 76089
ONEWEB-0628             
1 55169U 23004AF  24203.81612560 -.00000273  00000+0 -79541-3 0  9997
2 55169  87.8958 129.1157 0002673  92.1783 267.9651 13.12444639 76823
ONEWEB-0629             
1 55170U 23004AG  24203.86237708  .00000015  00000+0  64755-5 0  9996
2 55170  87.9186 144.3310 0002554  80.8567 279.2854 13.17647182 76016
ONEWEB-0631             
1 55171U 23004AH  24203.84464260  .00000134  00000+0  30692-3 0  9993
2 55171  87.9153 113.8445 0001508  95.7423 264.3881 13.18685690 78031
